[{"OBJECT_NAME":"STARLINK-5163","OBJECT_ID":"2022-136D","EPOCH":"2026-03-09T21:33:28.391328","MEAN_MOTION":15.08836257,"ECCENTRICITY":0.00014116,"INCLINATION":53.2199,"RA_OF_ASC_NODE":343.3117,"ARG_OF_PERICENTER":81.2422,"MEAN_ANOMALY":278.873,"EPHEMERIS_TYPE":0,"CLASSIFICATION_TYPE":"U","NORAD_CAT_ID":54054,"ELEMENT_SET_NO":999,"REV_AT_EPOCH":18687,"BSTAR":-8.256175e-6,"MEAN_MOTION_DOT":-4.19e-6,"MEAN_MOTION_DDOT":0},{"OBJECT_NAME":"LEMUR-2-AHMED-ASRAR","OBJECT_ID":"2024-149DN","EPOCH":"2026-03-09T17:35:01.338432","MEAN_MOTION":15.10376432,"ECCENTRICITY":0.00016334,"INCLINATION":97.7021,"RA_OF_ASC_NODE":152.9847,"ARG_OF_PERICENTER":18.5035,"MEAN_ANOMALY":341.6253,"EPHEMERIS_TYPE":0,"CLASSIFICATION_TYPE":"U","NORAD_CAT_ID":60576,"ELEMENT_SET_NO":999,"REV_AT_EPOCH":8554,"BSTAR":0.0007977347,"MEAN_MOTION_DOT":0.00013045,"MEAN_MOTION_DDOT":0}]
